NORAD_CAT_ID,OBJECT_NAME,OBJECT_TYPE,EPOCH,MEAN_MOTION,ECCENTRICITY,INCLINATION,RA_OF_ASC_NODE,ARG_OF_PERICENTER,MEAN_ANOMALY,BSTAR,MEAN_MOTION_DOT,MEAN_MOTION_DDOT,TLE_LINE0,TLE_LINE1,TLE_LINE2,SEMIMAJOR_AXIS,PERIOD,APOGEE,PERIGEE,DECAYED
49452.0,STARLINK-3150,PAYLOAD,2022-08-23 19:10:02,15.0883953,0.000166,53.2176,267.6243,58.3583,301.7571,0.00010868,1.442e-05,0.0,0 STARLINK-3150,1 49452U 21104AW  22235.79863997  .00001442  00000-0  10868-3 0  9991,2 49452  53.2176 267.6243 0001660  58.3583 301.7571 15.08839530 43446,6917.882,95.438,540.895,538.5980000000002,0.0
49452.0,STARLINK-3150,PAYLOAD,2022-08-24 03:06:58,15.08842169,0.0001663,53.2176,266.1372,58.3245,301.7909,9.9552e-05,1.297e-05,0.0,0 STARLINK-3150,1 49452U 21104AW  22236.12983835  .00001297  00000-0  99552-4 0  9999,2 49452  53.2176 266.1372 0001663  58.3245 301.7909 15.08842169 44573,6917.874,95.437,540.889,538.5880000000002,0.0
49452.0,STARLINK-3150,PAYLOAD,2022-08-24 09:28:30,15.08843681,0.0001671,53.2175,264.9477,58.3895,301.726,8.8696e-05,1.124e-05,0.0,0 STARLINK-3150,1 49452U 21104AW  22236.39479725  .00001124  00000-0  88696-4 0  9992,2 49452  53.2175 264.9477 0001671  58.3895 301.7260 15.08843681 43539,6917.869000000002,95.437,540.89,538.578,0.0
49452.0,STARLINK-3150,PAYLOAD,2022-08-25 07:43:54,15.0884105,0.000176,53.2176,260.7843,58.46100000000001,301.6553,1.9472e-05,2.2e-07,0.0,0 STARLINK-3150,1 49452U 21104AW  22237.32215918  .00000022  00000-0  19472-4 0  9990,2 49452  53.2176 260.7843 0001760  58.4610 301.6553 15.08841050 44753,6917.877,95.437,540.96,538.525,0.0
49452.0,STARLINK-3150,PAYLOAD,2022-08-25 09:19:18,15.08835215,0.0001671,53.2171,260.487,56.5307,303.5845,-3.274e-05,-8.09e-06,0.0,0 STARLINK-3150,1 49452U 21104AW  22237.38840398 -.00000809  00000-0 -32740-4 0  9990,2 49452  53.2171 260.4870 0001671  56.5307 303.5845 15.08835215 44760,6917.895,95.438,540.9159999999998,538.604,0.0
49452.0,STARLINK-3150,PAYLOAD,2022-08-25 18:51:37,15.08833447,0.0001698,53.2171,258.7029,56.0755,304.0399,-5.7529e-05,-1.203e-05,0.0,0 STARLINK-3150,1 49452U 21104AW  22237.78584677 -.00001203  00000-0 -57529-4 0  9990,2 49452  53.2171 258.7029 0001698  56.0755 304.0399 15.08833447 43749,6917.9,95.438,540.94,538.591,0.0
49452.0,STARLINK-3150,PAYLOAD,2022-08-26 07:34:42,15.08835031,0.000165,53.2169,256.3236,57.7146,302.4006,-3.8186e-05,-8.96e-06,0.0,0 STARLINK-3150,1 49452U 21104AW  22238.31576624 -.00000896  00000-0 -38186-4 0  9998,2 49452  53.2169 256.3236 0001650  57.7146 302.4006 15.08835031 43827,6917.896,95.438,540.9019999999998,538.619,0.0
49452.0,STARLINK-3150,PAYLOAD,2022-08-27 07:25:29,15.08830584,0.0001675999999999,53.2173,251.8638,57.2326,302.8828,8.3054e-05,1.034e-05,0.0,0 STARLINK-3150,1 49452U 21104AW  22239.30936895  .00001034  00000-0  83054-4 0  9995,2 49452  53.2173 251.8638 0001676  57.2326 302.8828 15.08830584 43971,6917.909000000002,95.438,540.934,538.615,0.0
49452.0,STARLINK-3150,PAYLOAD,2022-08-28 07:16:16,15.08837525,0.0001735,53.217,247.4038,56.5256,303.5901,0.00010752,1.423e-05,0.0,0 STARLINK-3150,1 49452U 21104AW  22240.30296946  .00001423  00000-0  10752-3 0  9999,2 49452  53.2170 247.4038 0001735  56.5256 303.5901 15.08837525 44123,6917.888000000001,95.438,540.953,538.553,0.0
49452.0,STARLINK-3150,PAYLOAD,2022-08-29 07:07:03,15.08843837,0.0001779,53.2173,242.944,58.1966,301.92,0.00011929,1.611e-05,0.0,0 STARLINK-3150,1 49452U 21104AW  22241.29656610  .00001611  00000-0  11929-3 0  9992,2 49452  53.2173 242.9440 0001779  58.1966 301.9200 15.08843837 44270,6917.869000000002,95.437,540.964,538.503,0.0
49452.0,STARLINK-3150,PAYLOAD,2022-08-30 00:36:17,15.0885408,0.0001795,53.2173,239.6729,59.0521,301.0647,0.00015521,2.184e-05,0.0,0 STARLINK-3150,1 49452U 21104AW  22242.02519940  .00002184  00000-0  15521-3 0  9996,2 49452  53.2173 239.6729 0001795  59.0521 301.0647 15.08854080 45468,6917.837,95.437,540.944,538.461,0.0
49452.0,STARLINK-3150,PAYLOAD,2022-08-30 06:57:50,15.08846416,0.0001814,53.2171,238.4822,56.6177,303.4989,7.0042e-05,8.27e-06,0.0,0 STARLINK-3150,1 49452U 21104AW  22242.29016225  .00000827  00000-0  70042-4 0  9995,2 49452  53.2171 238.4822 0001814  56.6177 303.4989 15.08846416 45503,6917.861,95.437,540.981,538.471,0.0
49452.0,STARLINK-3150,PAYLOAD,2022-08-30 16:30:08,15.08850909,0.000181,53.2178,236.6958,55.6242,304.4921,7.494399999999999e-05,9.05e-06,0.0,0 STARLINK-3150,1 49452U 21104AW  22242.68759672  .00000905  00000-0  74944-4 0  9990,2 49452  53.2178 236.6958 0001810  55.6242 304.4921 15.08850909 44483,6917.847,95.437,540.964,538.46,0.0
49452.0,STARLINK-3150,PAYLOAD,2022-08-31 06:48:37,15.08842377,0.0001875999999999,53.2179,234.0227,59.3332,300.7845,-6.3610000000000014e-06,-3.89e-06,0.0,0 STARLINK-3150,1 49452U 21104AW  22243.28376537 -.00000389  00000-0 -63610-5 0  9999,2 49452  53.2179 234.0227 0001876  59.3332 300.7845 15.08842377 44572,6917.873000000001,95.437,541.036,538.44,0.0
49452.0,STARLINK-3150,PAYLOAD,2022-09-01 00:17:51,15.08853775,0.000188,53.2185,230.7526,64.1276,295.991,-7.1713e-05,-1.4300000000000004e-05,0.0,0 STARLINK-3150,1 49452U 21104AW  22244.01239917 -.00001430  00000-0 -71713-4 0  9991,2 49452  53.2185 230.7526 0001880  64.1276 295.9910 15.08853775 45764,6917.8380000000025,95.437,541.004,538.403,0.0
49452.0,STARLINK-3150,PAYLOAD,2022-09-01 06:39:23,15.08847813,0.0001893,53.2175,229.5614,57.9418,302.1758,3.8319e-05,3.22e-06,0.0,0 STARLINK-3150,1 49452U 21104AW  22244.27735767  .00000322  00000-0  38319-4 0  9995,2 49452  53.2175 229.5614 0001893  57.9418 302.1758 15.08847813 44721,6917.857,95.437,541.031,538.4119999999998,0.0
49452.0,STARLINK-3150,PAYLOAD,2022-09-02 00:08:38,15.08842464,0.0001883,53.2173,226.29,57.365,302.7524,6.208300000000001e-05,7.000000000000003e-06,0.0,0 STARLINK-3150,1 49452U 21104AW  22245.00599944  .00000700  00000-0  62083-4 0  9997,2 49452  53.2173 226.2900 0001883  57.3650 302.7524 15.08842464 45918,6917.873000000001,95.437,541.04,538.435,0.0
49452.0,STARLINK-3150,PAYLOAD,2022-09-02 06:30:11,15.08836183,0.0001804,53.2169,225.0999,57.1365,302.9801,8.3333e-06,-1.55e-06,0.0,0 STARLINK-3150,1 49452U 21104AW  22245.27096562 -.00000155  00000-0  83333-5 0  9991,2 49452  53.2169 225.0999 0001804  57.1365 302.9801 15.08836183 45957,6917.892,95.438,541.005,538.509,0.0
49452.0,STARLINK-3150,PAYLOAD,2022-09-02 16:02:30,15.08837971,0.0001844999999999,53.2171,223.3167,57.7283,302.3888,1.314e-05,-7.9e-07,0.0,0 STARLINK-3150,1 49452U 21104AW  22245.66840537 -.00000079  00000-0  13140-4 0  9996,2 49452  53.2171 223.3167 0001845  57.7283 302.3888 15.08837971 44930,6917.887,95.438,541.028,538.475,0.0
49452.0,STARLINK-3150,PAYLOAD,2022-09-03 07:56:21,15.08843381,0.0001872,53.217,220.343,58.0492,302.0682,1.7262000000000002e-05,-1.3e-07,0.0,0 STARLINK-3150,1 49452U 21104AW  22246.33080206 -.00000013  00000-0  17262-4 0  9997,2 49452  53.2170 220.3430 0001872  58.0492 302.0682 15.08843381 45038,6917.87,95.437,541.03,538.44,0.0
49452.0,STARLINK-3150,PAYLOAD,2022-09-04 07:47:07,15.08847309,0.0001947,53.2178,215.8836,59.0737,301.0446,0.00017917,2.565e-05,0.0,0 STARLINK-3150,1 49452U 21104AW  22247.32439210  .00002565  00000-0  17917-3 0  9999,2 49452  53.2178 215.8836 0001947  59.0737 301.0446 15.08847309 46268,6917.858,95.437,541.07,538.376,0.0
49452.0,STARLINK-3150,PAYLOAD,2022-09-05 01:16:22,15.08847109,0.0002108,53.2182,212.6141,60.7223,299.3979,0.00010796,1.431e-05,0.0,0 STARLINK-3150,1 49452U 21104AW  22248.05303435  .00001431  00000-0  10796-3 0  9998,2 49452  53.2182 212.6141 0002108  60.7223 299.3979 15.08847109 46376,6917.859,95.437,541.182,538.265,0.0
49452.0,STARLINK-3150,PAYLOAD,2022-09-05 07:37:54,15.0885004,0.0002093,53.2181,211.4251,54.7081,305.4107,8.574799999999999e-05,1.077e-05,0.0,0 STARLINK-3150,1 49452U 21104AW  22248.31799255  .00001077  00000-0  85748-4 0  9992,2 49452  53.2181 211.4251 0002093  54.7081 305.4107 15.08850040 45337,6917.85,95.437,541.163,538.2669999999998,0.0
49452.0,STARLINK-3150,PAYLOAD,2022-09-06 02:42:31,15.08849013,0.0001803,53.2171,207.855,56.7873,303.3292,1.0867e-05,-1.15e-06,0.0,0 STARLINK-3150,1 49452U 21104AW  22249.11286958 -.00000115  00000-0  10867-4 0  9995,2 49452  53.2171 207.8550 0001803  56.7873 303.3292 15.08849013 46539,6917.853,95.437,540.965,538.471,0.0
49452.0,STARLINK-3150,PAYLOAD,2022-09-06 07:28:41,15.08835436,0.0001862,53.217,206.9632,57.0636,303.0535,-0.00018185,-3.181e-05,0.0,0 STARLINK-3150,1 49452U 21104AW  22249.31159190 -.00003181  00000-0 -18185-3 0  9991,2 49452  53.2170 206.9632 0001862  57.0636 303.0535 15.08835436 46569,6917.894,95.438,541.047,538.471,0.0
49452.0,STARLINK-3150,PAYLOAD,2022-09-07 07:19:29,15.08839082,0.0001764999999999,53.2186,202.5032,61.1475,298.9694,-9.3047e-05,-1.769e-05,0.0,0 STARLINK-3150,1 49452U 21104AW  22250.30520060 -.00001769  00000-0 -93047-4 0  9991,2 49452  53.2186 202.5032 0001765  61.1475 298.9694 15.08839082 45637,6917.8830000000025,95.438,540.969,538.5269999999998,0.0
49452.0,STARLINK-3150,PAYLOAD,2022-09-07 21:37:58,15.08823598,0.0001730999999999,53.2184,199.8272,65.2765,294.8407,6.691600000000001e-05,7.77e-06,0.0,0 STARLINK-3150,1 49452U 21104AW  22250.90136808  .00000777  00000-0  66916-4 0  9991,2 49452  53.2184 199.8272 0001731  65.2765 294.8407 15.08823598 45721,6917.931,95.439,540.993,538.5980000000002,0.0
49452.0,STARLINK-3150,PAYLOAD,2022-09-07 23:13:21,15.08832435,0.0001925,53.2185,199.5297,57.5644,302.5534,6.1722e-06,-1.9e-06,0.0,0 STARLINK-3150,1 49452U 21104AW  22250.96760500 -.00000190  00000-0  61722-5 0  9990,2 49452  53.2185 199.5297 0001925  57.5644 302.5534 15.08832435 46810,6917.904,95.438,541.1,538.437,0.0
49452.0,STARLINK-3150,PAYLOAD,2022-09-08 07:10:16,15.08834875,0.0001781999999999,53.2182,198.0429,65.12100000000001,294.9967,0.00014989,2.098e-05,0.0,0 STARLINK-3150,1 49452U 21104AW  22251.29880294  .00002098  00000-0  14989-3 0  9999,2 49452  53.2182 198.0429 0001782  65.1210 294.9967 15.08834875 45782,6917.896,95.438,540.994,538.528,0.0
